HAWK-7A                 
1 56191U 23054P   26068.68910991  .00007758  00000+0  30248-3 0  9997
2 56191  97.2827 318.5579 0004249  51.2619 308.8999 15.26207271161849
FLOCK 4G-30             
1 62679U 25009BY  26068.70871344  .00013147  00000+0  49475-3 0  9999
2 62679  97.3969 150.6012 0003795 342.4152  17.6955 15.27244548121341
